OBJECT_NAME,OBJECT_ID,EPOCH,MEAN_MOTION,ECCENTRICITY,INCLINATION,RA_OF_ASC_NODE,ARG_OF_PERICENTER,MEAN_ANOMALY,EPHEMERIS_TYPE,CLASSIFICATION_TYPE,NORAD_CAT_ID,ELEMENT_SET_NO,REV_AT_EPOCH,BSTAR,MEAN_MOTION_DOT,MEAN_MOTION_DDOT
STARLINK-11244 [DTC],2024-155C,2026-06-30T04:59:35.952864,15.69679398,.00009946,53.1586,146.6538,83.9467,276.1664,0,U,60926,999,10612,.45093757E-4,.4871E-4,0
STARLINK-11243 [DTC],2024-155D,2026-06-30T03:34:58.255104,15.69718284,.00011146,53.1589,146.9998,106.2375,253.8766,0,U,60927,999,10606,.24980537E-4,.244E-4,0
STARLINK-11238 [DTC],2024-155E,2026-06-30T04:52:31.529280,15.69705890,.00008104,53.1581,146.6194,74.3354,285.7753,0,U,60928,999,10612,.11712074E-4,.831E-5,0
STARLINK-11240 [DTC],2024-155F,2026-06-30T04:45:27.637920,15.69703065,.00011872,53.1598,146.5885,79.6706,280.4445,0,U,60929,999,10607,.2069656E-4,.1919E-4,0
STARLINK-11251 [DTC],2024-155G,2026-06-30T04:38:23.735328,15.69703156,.00016248,53.1596,146.5560,137.6331,222.4812,0,U,60930,999,10607,.14868127E-4,.1212E-4,0
STARLINK-11204 [DTC],2024-155H,2026-06-30T04:31:20.293248,15.69707239,.00014194,53.1582,146.5228,96.5630,263.5550,0,U,60931,999,10607,.30931945E-4,.3159E-4,0
STARLINK-11246 [DTC],2024-155J,2026-06-30T04:24:16.312032,15.69705848,.00010641,53.1591,146.4905,85.1205,274.9934,0,U,60932,999,10607,.8308352E-5,.418E-5,0
STARLINK-11207 [DTC],2024-155K,2026-06-30T04:17:12.507072,15.69696154,.00011846,53.1596,146.4560,100.1707,259.9445,0,U,60933,999,10607,.35329808E-4,.3691E-4,0
STARLINK-11237 [DTC],2024-155L,2026-06-30T04:10:08.581152,15.69708929,.00008926,53.1595,146.4249,87.9825,272.1295,0,U,60934,999,10608,.9284697E-5,.537E-5,0
STARLINK-11253 [DTC],2024-155M,2026-06-30T03:56:09.720960,15.69703822,.00009753,53.1582,147.0893,112.6842,247.4279,0,U,60935,999,10606,.7483704E-5,.318E-5,0
STARLINK-11241 [DTC],2024-155N,2026-06-30T03:49:05.822688,15.69704232,.00008081,53.1589,147.0596,98.9370,261.1740,0,U,60936,999,10606,.6363797E-5,.183E-5,0
STARLINK-32259,2024-155P,2026-06-29T19:52:36.164640,15.34411506,.0000898,53.1595,328.5238,65.2954,294.8142,0,U,60937,999,10351,.24460465E-3,.79E-4,0
STARLINK-32262,2024-155Q,2026-06-30T20:00:01.999008,15.95863101,.0008663,53.1331,270.6323,354.8153,299.2351,0,U,60938,999,605,.82721E-3,.34316E-2,.58077E-4
STARLINK-32258,2024-155R,2026-06-30T19:22:27.054048,15.34393112,.000107,53.1598,323.2647,98.7347,261.3776,0,U,60939,999,10362,.43016E-4,.1077E-4,0
STARLINK-32251,2024-155S,2026-06-30T18:21:58.830336,15.34398961,.0001249,53.1623,323.7091,94.0250,266.0896,0,U,60940,999,10366,-.42411E-4,-.1809E-4,0
STARLINK-32224,2024-155T,2026-06-30T18:40:09.987168,15.34392629,.0000863,53.1608,323.7856,95.8397,264.2704,0,U,60941,999,10367,.10605E-3,.3208E-4,0
STARLINK-32184,2024-155U,2026-06-30T19:28:30.809280,15.34392822,.000098,53.1599,323.2923,66.5710,293.5395,0,U,60942,999,10362,-.32495E-4,-.1473E-4,0
STARLINK-32288,2024-155V,2026-06-30T19:31:33.050208,15.34394296,.0002445,53.1620,323.2972,76.4161,283.7114,0,U,60943,999,10362,.9071E-5,-.71E-6,0
STARLINK-32276,2024-155W,2026-06-30T19:01:22.467360,15.34399615,.0001343,53.1613,323.8739,102.8971,257.2182,0,U,60944,999,10371,.4133E-3,.13613E-3,0
YAOGAN-43 02A,2024-156A,2026-06-30T20:17:22.290432,15.50842780,.0003719,34.9954,63.2128,339.2287,20.8285,0,U,60945,999,10208,.87631E-3,.52511E-3,0
YAOGAN-43 02B,2024-156B,2026-06-30T21:11:26.636352,15.23045948,.0004776,34.9947,111.8854,233.2461,126.7815,0,U,60946,999,10153,.40073E-3,.9645E-4,0
YAOGAN-43 02C,2024-156C,2026-06-30T21:04:51.053952,15.23055432,.0002773,34.9984,112.0229,165.7970,194.2823,0,U,60947,999,10153,.2626E-3,.6305E-4,0
YAOGAN-43 02D,2024-156D,2026-06-30T21:15:06.725664,15.23055894,.00021,34.9921,111.7983,354.5302,5.5390,0,U,60948,999,10153,.32285E-3,.7762E-4,0
YAOGAN-43 02E,2024-156E,2026-06-30T21:20:24.401184,15.22976254,.0003077,34.9960,112.0018,143.9981,216.0941,0,U,60949,999,10153,.50391E-3,.12115E-3,0
YAOGAN-43 02F,2024-156F,2026-06-30T21:06:51.668352,15.23035225,.0000877,34.9929,111.7630,242.1143,117.9482,0,U,60950,999,10153,.30304E-3,.7278E-4,0
SENTINEL-2C,2024-157A,2026-06-30T16:03:24.389856,14.30821390,.0000905,98.5691,256.2603,92.3735,267.7552,0,U,60989,999,9491,.58712E-4,.11E-5,0
STARLINK-11289 [DTC],2024-158B,2026-06-30T17:48:15.781248,15.69720014,.0000842,53.1582,83.7479,75.2402,284.8709,0,U,60991,999,10535,-.11387E-4,-.1968E-4,0
STARLINK-11282 [DTC],2024-158C,2026-06-30T18:09:27.317088,15.69712354,.0000928,53.1593,83.8469,81.1333,278.9790,0,U,60992,999,10535,.62946E-5,.174E-5,0
STARLINK-11283 [DTC],2024-158D,2026-06-30T17:27:13.205088,15.69707253,.0000657,53.1563,84.3824,81.7022,278.4071,0,U,60993,999,10534,.52796E-5,.52E-6,0
STARLINK-11267 [DTC],2024-158E,2026-06-30T17:20:09.553056,15.69708170,.0000938,53.1585,84.3559,86.4034,273.7092,0,U,60994,999,10534,.55092E-5,.79E-6,0
STARLINK-11269 [DTC],2024-158F,2026-06-30T00:24:34.269984,15.69706293,.00010388,53.1599,87.7717,85.5838,274.5298,0,U,60995,999,10522,.10692759E-4,.707E-5,0
STARLINK-11281 [DTC],2024-158G,2026-06-30T17:06:01.130976,15.69754501,.0001207,53.1595,84.2871,71.6616,288.4533,0,U,60996,999,10533,-.81596E-4,-.1048E-3,0
STARLINK-11260 [DTC],2024-158H,2026-06-29T22:41:26.670048,15.69708342,.00008322,53.1588,65.7245,95.7056,264.4056,0,U,60997,999,10558,.698592E-5,.258E-5,0
STARLINK-11287 [DTC],2024-158J,2026-06-30T00:10:26.558976,15.69706009,.00008487,53.1582,87.7052,68.2844,291.8264,0,U,60998,999,10522,.1494735E-5,-.407E-5,0
STARLINK-11270 [DTC],2024-158K,2026-06-30T06:10:06.609216,15.69762479,.00013469,53.1579,86.4186,132.0027,228.1106,0,U,60999,999,10526,.10103375E-2,.123926E-2,0
STARLINK-11290 [DTC],2024-158L,2026-06-30T18:16:30.830880,15.69713106,.0000563,53.1573,83.8714,60.0416,300.0657,0,U,61000,999,10541,.75071E-5,.322E-5,0
STARLINK-11274 [DTC],2024-158M,2026-06-30T18:02:23.577792,15.69685433,.0001237,53.1585,83.8074,77.9619,282.1537,0,U,61001,999,10534,.35885E-4,.3756E-4,0
STARLINK-11288 [DTC],2024-158N,2026-06-29T23:35:07.028736,15.69726141,.00008039,53.1586,87.5444,67.3159,292.7944,0,U,61002,999,10522,-.33753187E-4,-.4678E-4,0
STARLINK-32279,2024-158P,2026-06-30T14:58:32.837088,15.34396439,.0001432,53.1614,260.1376,89.8677,270.2490,0,U,61003,999,10295,.30568E-4,.656E-5,0
STARLINK-32336,2024-158Q,2026-06-30T12:00:02.222208,15.34410677,.00009621,53.1601,260.7898,75.6174,284.4936,0,U,61004,999,10293,.55353784E-4,.1495E-4,0
STARLINK-32284,2024-158R,2026-06-30T11:47:55.708800,15.34396825,.00010309,53.1609,260.7406,83.6789,276.4331,0,U,61005,999,10286,.1223305E-4,.37E-6,0
STARLINK-32282,2024-158S,2026-06-30T10:44:25.953504,15.34397721,.00014154,53.1595,261.1719,98.6791,261.4372,0,U,61006,999,10292,.61127666E-4,.1689E-4,0
STARLINK-32360,2024-158T,2026-06-30T15:18:05.565024,15.34364131,.0001239,53.1592,244.2210,95.0149,265.0995,0,U,61007,999,10310,.91381E-5,-.68E-6,0
STARLINK-32340,2024-158U,2026-06-30T15:04:34.808160,15.34406128,.0001168,53.1607,260.0925,64.1647,295.9475,0,U,61008,999,10288,.49362E-5,-.209E-5,0
STARLINK-32347,2024-158W,2026-06-30T10:35:20.709024,15.34391970,.00012969,53.1613,261.1315,105.8004,254.3142,0,U,61010,999,10285,.13572598E-4,.82E-6,0
GEESAT-3 01,2024-159A,2026-06-30T19:22:53.033664,14.84284494,.0002513,50.0016,19.9105,295.5677,64.5001,0,U,61011,999,9870,.27782E-3,.2127E-4,0
GEESAT-3 02,2024-159B,2026-06-30T19:12:24.172128,14.84263653,.0018964,49.9943,20.1720,108.7010,251.5989,0,U,61012,999,9881,.30958E-3,.2398E-4,0
GEESAT-3 03,2024-159C,2026-06-30T19:44:20.220000,14.84271954,.000555,49.9949,18.8059,177.3691,182.7277,0,U,61013,999,9886,.24999E-3,.189E-4,0
GEESAT-3 04,2024-159D,2026-06-30T18:55:04.048320,14.83288280,.0002448,49.9985,291.1071,137.9769,222.1357,0,U,61014,999,10002,.27565E-3,.2055E-4,0
GEESAT-3 05,2024-159E,2026-06-30T19:32:26.265696,14.84237627,.001304,50.0029,20.1133,108.6050,251.6306,0,U,61015,999,9880,.34512E-3,.2695E-4,0
GEESAT-3 06,2024-159F,2026-06-30T18:39:38.790720,14.84263532,.0016615,49.9982,20.3132,129.7972,230.4432,0,U,61016,999,9878,.29563E-3,.2278E-4,0
GEESAT-3 07,2024-159G,2026-06-30T18:28:40.156608,14.84258939,.0011277,49.9939,19.9479,85.1017,275.1208,0,U,61017,999,9816,.28647E-3,.2199E-4,0
GEESAT-3 08,2024-159H,2026-06-30T18:50:19.343040,14.84269928,.0027799,50.0054,20.0247,145.5112,214.7637,0,U,61018,999,9879,.28265E-3,.2175E-4,0
GEESAT-3 09,2024-159J,2026-06-30T19:01:11.296704,14.84266908,.0022224,49.9977,19.5915,112.3129,248.0169,0,U,61019,999,9879,.29426E-3,.227E-4,0
GEESAT-3 10,2024-159K,2026-06-30T19:55:03.330624,14.84256751,.0003941,49.9997,19.9515,159.6808,200.4288,0,U,61020,999,9853,.29928E-3,.2307E-4,0
SPACEMOBILE-003,2024-163A,2026-06-26T19:29:47.816736,15.20822722,.0005991,52.9744,265.1828,141.0621,219.0806,0,U,61045,999,9923,.90246E-4,.1689E-4,0
SPACEMOBILE-005,2024-163B,2026-06-30T16:09:04.410144,15.20820839,.0008899,52.9808,247.3604,149.2352,210.9166,0,U,61046,999,9981,.33429E-3,.7153E-4,0
SPACEMOBILE-001,2024-163C,2026-06-30T14:32:29.046336,15.20851486,.0008011,52.9760,247.3900,148.1917,211.9563,0,U,61047,999,9980,.11758E-3,.2303E-4,0
SPACEMOBILE-002,2024-163D,2026-06-30T14:09:34.965792,15.20840752,.0007602,52.9727,247.5052,152.5039,207.6359,0,U,61048,999,9980,.23489E-3,.4929E-4,0
SPACEMOBILE-004,2024-163E,2026-06-30T10:34:42.044160,15.20804965,.00085454,52.9658,247.9786,181.3741,178.7231,0,U,61049,999,9978,.58449775E-3,.12757E-3,0
STARLINK-11286 [DTC],2024-164A,2026-06-30T02:20:54.127680,15.69700719,.00012579,53.1596,117.1573,73.6493,286.4663,0,U,61050,999,10307,.13229298E-4,.1014E-4,0
STARLINK-11252 [DTC],2024-164B,2026-06-30T02:13:50.417760,15.69697748,.0001107,53.1592,117.1231,94.9470,265.1675,0,U,61051,999,10307,.29460854E-4,.298E-4,0
STARLINK-11230 [DTC],2024-164D,2026-06-30T01:59:42.934848,15.69700396,.00010618,53.1585,117.0572,54.8661,305.2457,0,U,61053,999,10307,.2805524E-5,-.249E-5,0
STARLINK-11294 [DTC],2024-164E,2026-06-30T00:20:57.575328,15.69705235,.00008038,53.1595,117.3366,58.9880,301.1217,0,U,61054,999,10306,.15166475E-4,.1249E-4,0
